[
  {
    "OBJECT_NAME": "STARLINK-6318",
    "OBJECT_ID": "23065AD",
    "EPOCH": "2025-11-10T10:23:08.472480",
    "MEAN_MOTION": 15.02539796,
    "ECCENTRICITY": 0.0001493,
    "INCLINATION": 43.0025,
    "RA_OF_ASC_NODE": 112.4644,
    "ARG_OF_PERICENTER": 274.7768,
    "MEAN_ANOMALY": 85.2904,
    "EPHEMERIS_TYPE": 0,
    "CLASSIFICATION_TYPE": "U",
    "NORAD_CAT_ID": 56530,
    "ELEMENT_SET_NO": 999,
    "REV_AT_EPOCH": 13898,
    "BSTAR": 0.00012373,
    "MEAN_MOTION_DOT": 1.468e-05,
    "MEAN_MOTION_DDOT": 0.0,
    "TLE_LINE1": "1 56530U 23065AD  25314.43273695  .00001468  00000+0  12373-3 0  9996",
    "TLE_LINE2": "2 56530  43.0025 112.4644 0001493 274.7768  85.2904 15.02539796138989",
    "COMMENT": "Grouped by shell and plane from TLE"
  },
  {
    "OBJECT_NAME": "STARLINK-30385",
    "OBJECT_ID": "23134H",
    "EPOCH": "2025-11-10T11:22:17.285952",
    "MEAN_MOTION": 15.02534438,
    "ECCENTRICITY": 0.0001263,
    "INCLINATION": 43.003,
    "RA_OF_ASC_NODE": 112.8198,
    "ARG_OF_PERICENTER": 266.7249,
    "MEAN_ANOMALY": 93.3448,
    "EPHEMERIS_TYPE": 0,
    "CLASSIFICATION_TYPE": "U",
    "NORAD_CAT_ID": 57778,
    "ELEMENT_SET_NO": 999,
    "REV_AT_EPOCH": 12152,
    "BSTAR": 1.556e-05,
    "MEAN_MOTION_DOT": 7e-08,
    "MEAN_MOTION_DDOT": 0.0,
    "TLE_LINE1": "1 57778U 23134H   25314.47381118  .00000007  00000+0  15560-4 0  9992",
    "TLE_LINE2": "2 57778  43.0030 112.8198 0001263 266.7249  93.3448 15.02534438121521",
    "COMMENT": "Grouped by shell and plane from TLE"
  },
  {
    "OBJECT_NAME": "STARLINK-30359",
    "OBJECT_ID": "23134J",
    "EPOCH": "2025-11-10T17:35:37.317120",
    "MEAN_MOTION": 15.02542562,
    "ECCENTRICITY": 0.0001331,
    "INCLINATION": 43.0026,
    "RA_OF_ASC_NODE": 111.3606,
    "ARG_OF_PERICENTER": 271.17,
    "MEAN_ANOMALY": 88.899,
    "EPHEMERIS_TYPE": 0,
    "CLASSIFICATION_TYPE": "U",
    "NORAD_CAT_ID": 57779,
    "ELEMENT_SET_NO": 999,
    "REV_AT_EPOCH": 12172,
    "BSTAR": 0.00025743,
    "MEAN_MOTION_DOT": 3.276e-05,
    "MEAN_MOTION_DDOT": 0.0,
    "TLE_LINE1": "1 57779U 23134J   25314.73307080  .00003276  00000+0  25743-3 0  9992",
    "TLE_LINE2": "2 57779  43.0026 111.3606 0001331 271.1700  88.8990 15.02542562121723",
    "COMMENT": "Grouped by shell and plane from TLE"
  },
  {
    "OBJECT_NAME": "STARLINK-30387",
    "OBJECT_ID": "23134T",
    "EPOCH": "2025-11-10T17:40:14.625696",
    "MEAN_MOTION": 15.02533358,
    "ECCENTRICITY": 0.0001449,
    "INCLINATION": 43.0019,
    "RA_OF_ASC_NODE": 110.535,
    "ARG_OF_PERICENTER": 271.5674,
    "MEAN_ANOMALY": 88.5002,
    "EPHEMERIS_TYPE": 0,
    "CLASSIFICATION_TYPE": "U",
    "NORAD_CAT_ID": 57788,
    "ELEMENT_SET_NO": 999,
    "REV_AT_EPOCH": 12173,
    "BSTAR": 9.8725e-05,
    "MEAN_MOTION_DOT": 1.13e-05,
    "MEAN_MOTION_DDOT": 0.0,
    "TLE_LINE1": "1 57788U 23134T   25314.73628039  .00001130  00000+0  98725-4 0  9990",
    "TLE_LINE2": "2 57788  43.0019 110.5350 0001449 271.5674  88.5002 15.02533358121731",
    "COMMENT": "Grouped by shell and plane from TLE"
  },
  {
    "OBJECT_NAME": "STARLINK-30845",
    "OBJECT_ID": "23170B",
    "EPOCH": "2025-11-11T04:04:49.531008",
    "MEAN_MOTION": 15.02541483,
    "ECCENTRICITY": 0.0001209,
    "INCLINATION": 43.0005,
    "RA_OF_ASC_NODE": 119.7163,
    "ARG_OF_PERICENTER": 269.1382,
    "MEAN_ANOMALY": 90.9322,
    "EPHEMERIS_TYPE": 0,
    "CLASSIFICATION_TYPE": "U",
    "NORAD_CAT_ID": 58207,
    "ELEMENT_SET_NO": 999,
    "REV_AT_EPOCH": 11245,
    "BSTAR": 0.00010292,
    "MEAN_MOTION_DOT": 1.187e-05,
    "MEAN_MOTION_DDOT": 0.0,
    "TLE_LINE1": "1 58207U 23170B   25315.17001772  .00001187  00000+0  10292-3 0  9999",
    "TLE_LINE2": "2 58207  43.0005 119.7163 0001209 269.1382  90.9322 15.02541483112458",
    "COMMENT": "Grouped by shell and plane from TLE"
  },
  {
    "OBJECT_NAME": "STARLINK-30838",
    "OBJECT_ID": "23170F",
    "EPOCH": "2025-11-11T04:33:35.423712",
    "MEAN_MOTION": 15.02546689,
    "ECCENTRICITY": 0.000129,
    "INCLINATION": 43.0037,
    "RA_OF_ASC_NODE": 119.8491,
    "ARG_OF_PERICENTER": 266.2755,
    "MEAN_ANOMALY": 93.794,
    "EPHEMERIS_TYPE": 0,
    "CLASSIFICATION_TYPE": "U",
    "NORAD_CAT_ID": 58211,
    "ELEMENT_SET_NO": 999,
    "REV_AT_EPOCH": 11245,
    "BSTAR": 0.00016915,
    "MEAN_MOTION_DOT": 2.083e-05,
    "MEAN_MOTION_DDOT": 0.0,
    "TLE_LINE1": "1 58211U 23170F   25315.18999333  .00002083  00000+0  16915-3 0  9998",
    "TLE_LINE2": "2 58211  43.0037 119.8491 0001290 266.2755  93.7940 15.02546689112455",
    "COMMENT": "Grouped by shell and plane from TLE"
  },
  {
    "OBJECT_NAME": "STARLINK-30813",
    "OBJECT_ID": "23170H",
    "EPOCH": "2025-11-11T04:28:49.084608",
    "MEAN_MOTION": 15.02544032,
    "ECCENTRICITY": 0.0001537,
    "INCLINATION": 43.004,
    "RA_OF_ASC_NODE": 119.8242,
    "ARG_OF_PERICENTER": 261.396,
    "MEAN_ANOMALY": 98.6708,
    "EPHEMERIS_TYPE": 0,
    "CLASSIFICATION_TYPE": "U",
    "NORAD_CAT_ID": 58213,
    "ELEMENT_SET_NO": 999,
    "REV_AT_EPOCH": 11245,
    "BSTAR": 0.0,
    "MEAN_MOTION_DOT": -2.76e-05,
    "MEAN_MOTION_DDOT": 0.0,
    "TLE_LINE1": "1 58213U 23170H   25315.18667922 -.00002760  00000+0 -18928-3 0  9996",
    "TLE_LINE2": "2 58213  43.0040 119.8242 0001537 261.3960  98.6708 15.02544032112459",
    "COMMENT": "Grouped by shell and plane from TLE"
  },
  {
    "OBJECT_NAME": "STARLINK-30805",
    "OBJECT_ID": "23170J",
    "EPOCH": "2025-11-11T04:24:00.048096",
    "MEAN_MOTION": 15.02539736,
    "ECCENTRICITY": 0.0001295,
    "INCLINATION": 43.0037,
    "RA_OF_ASC_NODE": 119.798,
    "ARG_OF_PERICENTER": 268.5434,
    "MEAN_ANOMALY": 91.526,
    "EPHEMERIS_TYPE": 0,
    "CLASSIFICATION_TYPE": "U",
    "NORAD_CAT_ID": 58214,
    "ELEMENT_SET_NO": 999,
    "REV_AT_EPOCH": 11245,
    "BSTAR": 0.00012762,
    "MEAN_MOTION_DOT": 1.521e-05,
    "MEAN_MOTION_DDOT": 0.0,
    "TLE_LINE1": "1 58214U 23170J   25315.18333389  .00001521  00000+0  12762-3 0  9996",
    "TLE_LINE2": "2 58214  43.0037 119.7980 0001295 268.5434  91.5260 15.02539736112450",
    "COMMENT": "Grouped by shell and plane from TLE"
  },
  {
    "OBJECT_NAME": "STARLINK-30792",
    "OBJECT_ID": "23170Q",
    "EPOCH": "2025-11-11T03:55:14.334240",
    "MEAN_MOTION": 15.02547733,
    "ECCENTRICITY": 0.0001263,
    "INCLINATION": 43.0023,
    "RA_OF_ASC_NODE": 119.6469,
    "ARG_OF_PERICENTER": 269.6,
    "MEAN_ANOMALY": 90.4698,
    "EPHEMERIS_TYPE": 0,
    "CLASSIFICATION_TYPE": "U",
    "NORAD_CAT_ID": 58220,
    "ELEMENT_SET_NO": 999,
    "REV_AT_EPOCH": 11245,
    "BSTAR": 0.00014871,
    "MEAN_MOTION_DOT": 1.806e-05,
    "MEAN_MOTION_DDOT": 0.0,
    "TLE_LINE1": "1 58220U 23170Q   25315.16336035  .00001806  00000+0  14871-3 0  9991",
    "TLE_LINE2": "2 58220  43.0023 119.6469 0001263 269.6000  90.4698 15.02547733112458",
    "COMMENT": "Grouped by shell and plane from TLE"
  },
  {
    "OBJECT_NAME": "STARLINK-30836",
    "OBJECT_ID": "23170R",
    "EPOCH": "2025-11-11T03:50:26.001888",
    "MEAN_MOTION": 15.0253999,
    "ECCENTRICITY": 0.000146,
    "INCLINATION": 43.0017,
    "RA_OF_ASC_NODE": 119.6209,
    "ARG_OF_PERICENTER": 271.5594,
    "MEAN_ANOMALY": 88.5081,
    "EPHEMERIS_TYPE": 0,
    "CLASSIFICATION_TYPE": "U",
    "NORAD_CAT_ID": 58221,
    "ELEMENT_SET_NO": 999,
    "REV_AT_EPOCH": 11245,
    "BSTAR": 7.9868e-05,
    "MEAN_MOTION_DOT": 8.75e-06,
    "MEAN_MOTION_DDOT": 0.0,
    "TLE_LINE1": "1 58221U 23170R   25315.16002317  .00000875  00000+0  79868-4 0  9998",
    "TLE_LINE2": "2 58221  43.0017 119.6209 0001460 271.5594  88.5081 15.02539990112453",
    "COMMENT": "Grouped by shell and plane from TLE"
  },
  {
    "OBJECT_NAME": "STARLINK-30875",
    "OBJECT_ID": "23170U",
    "EPOCH": "2025-11-11T04:14:23.000640",
    "MEAN_MOTION": 15.02638105,
    "ECCENTRICITY": 0.0001645,
    "INCLINATION": 43.0025,
    "RA_OF_ASC_NODE": 119.7333,
    "ARG_OF_PERICENTER": 244.202,
    "MEAN_ANOMALY": 115.8653,
    "EPHEMERIS_TYPE": 0,
    "CLASSIFICATION_TYPE": "U",
    "NORAD_CAT_ID": 58224,
    "ELEMENT_SET_NO": 999,
    "REV_AT_EPOCH": 11245,
    "BSTAR": 0.0,
    "MEAN_MOTION_DOT": -0.00024158,
    "MEAN_MOTION_DDOT": 0.0,
    "TLE_LINE1": "1 58224U 23170U   25315.17665510 -.00024158  00000+0 -17745-2 0  9998",
    "TLE_LINE2": "2 58224  43.0025 119.7333 0001645 244.2020 115.8653 15.02638105112457",
    "COMMENT": "Grouped by shell and plane from TLE"
  }
]